{"fetched_at":"2026-03-28T16:33:49Z","count":6709,"tles":[{"name":"SUPERVIEW NEO-2 03","line1":"1 62079U 24218B   26086.53722237  .00000592  00000+0  30903-4 0  9998","line2":"2 62079  97.4388  95.0281 0001614  87.0000 273.1419 15.19721488 74045","category":"Other"}]}